IRIDIUM 155             
1 43573U 18061E   21065.91854873  .00000072  00000-0  18611-4 0  9997
2 43573  86.3994 142.5977 0002355 109.3224 250.8226 14.34217053136975
IRIDIUM 154             
1 43574U 18061F   21065.62044173  .00000070  00000-0  17774-4 0  9997
2 43574  86.3999 142.7640 0002051  91.0284 269.1147 14.34216047136984
IRIDIUM 163             
1 43575U 18061G   21065.67118932  .00000071  00000-0  18120-4 0  9995
2 43575  86.3997 142.7169 0002677  88.8500 271.3003 14.34216562136964
IRIDIUM 156             
1 43576U 18061H   21065.92488082  .00000050  00000-0  10727-4 0  9992
2 43576  86.3997 142.6157 0002573  98.9361 261.2126 14.34215342136995
IRIDIUM 164             
1 43577U 18061J   21065.90586080  .00000079  00000-0  21178-4 0  9991
2 43577  86.3997 142.6348 0002189  90.1915 269.9532 14.34215433137033
IRIDIUM 159             
1 43578U 18061K   21065.45553665  .00000070  00000-0  17917-4 0  9992
2 43578  86.3996 142.8001 0002144  92.3429 267.8012 14.34219283136931
IRIDIUM 180             
1 43922U 19002A   21065.87364377  .00000065  00000-0  16304-4 0  9990
2 43922  86.3920  79.4510 0002288  64.0303 296.1128 14.34216251112600
IRIDIUM 176             
1 43923U 19002B   21065.77921874  .00000075  00000-0  79206-5 0  9993
2 43923  86.6056  79.5221 0002251  87.0174 273.1300 14.72248864115523
IRIDIUM 168             
1 43924U 19002C   21065.79753035  .00000042  00000-0  78627-5 0  9998
2 43924  86.3923  79.5054 0002076  83.9222 276.2211 14.34215092112574
IRIDIUM 173             
1 43925U 19002D   21065.78485047  .00000071  00000-0  18326-4 0  9994
2 43925  86.3920  79.4780 0002171  85.1808 274.9636 14.34215799112555
IRIDIUM 169             
1 43926U 19002E   21065.81853397  .00000081  00000-0  20033-4 0  9995
2 43926  86.4196 111.0844 0004536 182.6951 177.4224 14.38607148112989
IRIDIUM 172             
1 43927U 19002F   21065.91804712  .00000073  00000-0  19160-4 0  9994
2 43927  86.3920  79.4243 0002146  82.8862 277.2578 14.34218622112589
IRIDIUM 175             
1 43928U 19002G   21065.77304190  .00000103  00000-0  12338-4 0  9998
2 43928  86.6041  79.3646 0003045  87.1979 272.9587 14.72249481115516
IRIDIUM 171             
1 43929U 19002H   21065.96877933  .00000070  00000-0  18096-4 0  9990
2 43929  86.3929  79.4952 0002043  84.6391 275.5038 14.34216200112582
IRIDIUM 170             
1 43930U 19002J   21065.92134188  .00000110  00000-0  13511-4 0  9998
2 43930  86.6056  79.4692 0002544  85.9085 274.2422 14.72256668115556
IRIDIUM 167             
1 43931U 19002K   21065.89267072  .00000069  00000-0  17480-4 0  9996
2 43931  86.3921  79.4403 0002129  68.7001 291.4422 14.34217061112573
